H1 CPF 01  gfz 2022 08 13 00  7251 terrasarx 
H2 0702601  6201 31698    2022 08 13 00 59 42 2022 08 18 00 00 42   120 1 1  0 0 0
H9
10 0 59806  29502.000000  0    4255406.159  -1931320.240   5051558.351
10 0 59806  29622.000000  0    4723786.723  -2385639.639   4400930.504
10 0 59806  29742.000000  0    5101960.094  -2805673.236   3672842.090
10 0 59806  29862.000000  0    5383970.726  -3182435.328   2880090.505
10 0 59806  29982.000000  0    5565703.487  -3507610.920   2036624.017
10 0 59806  30102.000000  0    5644947.246  -3773738.551   1157293.875
10 0 59806  30222.000000  0    5621421.230  -3974379.030    257586.848
10 0 59806  30342.000000  0    5496761.983  -4104264.185   -646655.009
10 0 59806  30462.000000  0    5274471.731  -4159423.431  -1539522.711
10 0 59806  30582.000000  0    4959828.681  -4137282.886  -2405328.981
10 0 59806  30702.000000  0    4559761.926  -4036736.095  -3228890.515
10 0 59806  30822.000000  0    4082695.319  -3858184.739  -3995798.230
10 0 59806  30942.000000  0    3538363.943  -3603548.321  -4692669.459
10 0 59806  31062.000000  0    2937609.187  -3276243.569  -5307377.931
10 0 59806  31182.000000  0    2292157.289  -2881134.475  -5829256.881
10 0 59806  31302.000000  0    1614387.968  -2424456.278  -6249273.413
10 0 59806  31422.000000  0     917096.571  -1913713.980  -6560175.618
10 0 59806  31542.000000  0     213253.063  -1357555.467  -6756607.495
10 0 59806  31662.000000  0    -484235.806   -765624.557  -6835190.754
10 0 59806  31782.000000  0   -1162757.456   -148396.094  -6794575.685
10 0 59806  31902.000000  0   -1810216.291    483005.170  -6635461.554
10 0 59806  32022.000000  0   -2415244.338   1116999.893  -6360585.272
10 0 59806  32142.000000  0   -2967396.470   1741761.113  -5974679.519
10 0 59806  32262.000000  0   -3457328.936   2345429.836  -5484400.573
10 0 59806  32382.000000  0   -3876959.646   2916337.590  -4898225.587
10 0 59806  32502.000000  0   -4219606.674   3443231.570  -4226316.830
10 0 59806  32622.000000  0   -4480100.082   3915497.484  -3480354.907
10 0 59806  32742.000000  0   -4654865.642   4323376.443  -2673344.588
10 0 59806  32862.000000  0   -4741979.486   4658170.488  -1819393.146
10 0 59806  32982.000000  0   -4741190.558   4912431.751   -933465.714
10 0 59806  33102.000000  0   -4653910.787   5080131.055    -31120.365
10 0 59806  33222.000000  0   -4483169.486   5156799.990    871771.725
10 0 59806  33342.000000  0   -4233536.511   5139642.602   1759313.452
10 0 59806  33462.000000  0   -3911012.545   5027612.826   2615872.473
10 0 59806  33582.000000  0   -3522889.831   4821455.602   3426364.970
10 0 59806  33702.000000  0   -3077588.475   4523712.134   4176527.110
10 0 59806  33822.000000  0   -2584473.225   4138689.430   4853169.961
10 0 59806  33942.000000  0   -2053653.838   3672394.029   5444412.777
10 0 59806  34062.000000  0   -1495774.771   3132431.869   5939889.821
10 0 59806  34182.000000  0    -921798.861   2527877.481   6330927.444
10 0 59806  34302.000000  0    -342790.717   1869115.390   6610688.712
10 0 59806  34422.000000  0     230295.748   1167658.858   6774287.015
10 0 59806  34542.000000  0     786824.385    435946.361   6818866.296
10 0 59806  34662.000000  0    1316673.137   -312878.547   6743647.117
10 0 59806  34782.000000  0    1810417.172  -1065202.458   6549940.405
10 0 59806  34902.000000  0    2259496.289  -1807188.984   6241126.124
10 0 59806  35022.000000  0    2656364.299  -2525032.816   5822599.141
10 0 59806  35142.000000  0    2994618.317  -3205217.964   5301680.353
10 0 59806  35262.000000  0    3269104.397  -3834774.846   4687494.374
10 0 59806  35382.000000  0    3475998.899  -4401531.871   3990815.555
10 0 59806  35502.000000  0    3612863.630  -4894357.124   3223882.323
10 0 59806  35622.000000  0    3678672.272  -5303383.345   2400183.093
10 0 59806  35742.000000  0    3673808.201  -5620211.853   1534217.115
10 0 59806  35862.000000  0    3600032.975  -5838089.692    641234.377
10 0 59806  35982.000000  0    3460426.221  -5952054.386   -263039.300
10 0 59806  36102.000000  0    3259299.897  -5959045.818  -1162687.232
10 0 59806  36222.000000  0    3002085.232  -5857978.166  -2041892.142
10 0 59806  36342.000000  0    2695198.407  -5649772.232  -2885221.121
10 0 59806  36462.000000  0    2345888.015  -5337347.466  -3677902.839
10 0 59806  36582.000000  0    1962067.337  -4925573.163  -4406089.076
10 0 59806  36702.000000  0    1552136.624  -4421181.592  -5057093.863
10 0 59806  36822.000000  0    1124801.914  -3832647.268  -5619608.056
10 0 59806  36942.000000  0     688892.819  -3170035.262  -6083887.057
10 0 59806  37062.000000  0     253182.682  -2444822.156  -6441908.660
10 0 59806  37182.000000  0    -173784.579  -1669693.404  -6687500.362
10 0 59806  37302.000000  0    -583857.602   -858320.890  -6816435.536
10 0 59806  37422.000000  0    -969428.326    -25124.157  -6826498.497
10 0 59806  37542.000000  0   -1323569.412    814980.659  -6717517.381
10 0 59806  37662.000000  0   -1640155.832   1646840.824  -6491366.477
10 0 59806  37782.000000  0   -1913968.299   2455333.465  -6151937.251
10 0 59806  37902.000000  0   -2140778.820   3225634.894  -5705080.044
10 0 59806  38022.000000  0   -2317416.331   3943490.234  -5158513.255
10 0 59806  38142.000000  0   -2441811.531   4595478.144  -4521701.929
10 0 59806  38262.000000  0   -2513020.139   5169266.581  -3805704.061
10 0 59806  38382.000000  0   -2531222.669   5653852.226  -3022986.571
10 0 59806  38502.000000  0   -2497700.829   6039779.823  -2187215.795
10 0 59806  38622.000000  0   -2414791.437   6319338.039  -1313022.118
10 0 59806  38742.000000  0   -2285817.766   6486722.287   -415742.332
10 0 59806  38862.000000  0   -2115000.579   6538163.519    488851.646
10 0 59806  38982.000000  0   -1907350.110   6472020.154   1384838.664
10 0 59806  39102.000000  0   -1668539.654   6288822.553   2256440.393
10 0 59806  39222.000000  0   -1404765.861   5991272.628   3088307.682
10 0 59806  39342.000000  0   -1122600.333   5584200.948   3865797.090
10 0 59806  39462.000000  0    -828836.409   5074482.845   4575233.541
10 0 59806  39582.000000  0    -530332.973   4470913.016   5204154.876
10 0 59806  39702.000000  0    -233859.033   3784042.694   5741528.036
10 0 59806  39822.000000  0      54054.067   3025987.713   6177939.245
10 0 59806  39942.000000  0     327252.027   2210206.339   6505753.803
10 0 59806  40062.000000  0     580085.580   1351255.572   6719243.366
10 0 59806  40182.000000  0     807524.713    464527.905   6814680.283
10 0 59806  40302.000000  0    1005256.832   -434024.484   6790397.685
10 0 59806  40422.000000  0    1169767.674  -1328175.631   6646817.986
10 0 59806  40542.000000  0    1298403.791  -2201718.463   6386446.333
10 0 59806  40662.000000  0    1389415.509  -3038758.652   6013830.279
10 0 59806  40782.000000  0    1441979.424  -3824006.040   5535484.749
10 0 59806  40902.000000  0    1456200.182  -4543056.487   4959782.553
10 0 59806  41022.000000  0    1433092.800  -5182660.031   4296814.342
10 0 59806  41142.000000  0    1374544.826  -5730973.803   3558217.941
10 0 59806  41262.000000  0    1283258.866  -6177791.458   2756975.342
10 0 59806  41382.000000  0    1162676.296  -6514741.578   1907183.860
10 0 59806  41502.000000  0    1016883.828  -6735453.842   1023806.032
10 0 59806  41622.000000  0     850505.797  -6835687.337    122400.681
10 0 59806  41742.000000  0     668583.575  -6813417.567   -781160.259
10 0 59806  41862.000000  0     476445.035  -6668875.703  -1670982.198
10 0 59806  41982.000000  0     279570.000  -6404541.266  -2531435.478
10 0 59806  42102.000000  0      83454.027  -6025091.518  -3347435.385
10 0 59806  42222.000000  0    -106526.541  -5537308.351  -4104710.232
10 0 59806  42342.000000  0    -285244.914  -4949943.868  -4790051.156
10 0 59806  42462.000000  0    -447946.045  -4273550.411  -5391537.604
10 0 59806  42582.000000  0    -590358.132  -3520280.152  -5898737.135
10 0 59806  42702.000000  0    -708790.764  -2703658.255  -6302876.354
10 0 59806  42822.000000  0    -800218.349  -1838334.936  -6596981.453
10 0 59806  42942.000000  0    -862347.433   -939821.709  -6775987.141
10 0 59806  43062.000000  0    -893667.116    -24216.167  -6836815.174
10 0 59806  43182.000000  0    -893481.203    892081.391  -6778420.646
10 0 59806  43302.000000  0    -861922.281   1792653.945  -6601807.479
10 0 59806  43422.000000  0    -799947.767   2661354.345  -6310012.977
10 0 59806  43542.000000  0    -709317.379   3482588.829  -5908062.551
10 0 59806  43662.000000  0    -592552.537   4241594.969  -5402892.562
10 0 59806  43782.000000  0    -452877.884   4924707.459  -4803241.474
10 0 59806  43902.000000  0    -294146.613   5519609.349  -4119510.274
10 0 59806  44022.000000  0    -120750.225   6015562.730  -3363591.572
10 0 59806  44142.000000  0      62485.819   6403613.111  -2548670.148
10 0 59806  44262.000000  0     250418.325   6676763.653  -1688997.535
10 0 59806  44382.000000  0     437711.878   6830114.256   -799643.255
10 0 59806  44502.000000  0     618971.056   6860960.667    103772.711
10 0 59806  44622.000000  0     788876.010   6768850.487   1005360.790
10 0 59806  44742.000000  0     942317.494   6555593.291   1889249.766
10 0 59806  44862.000000  0    1074526.504   6225225.097   2739874.596
10 0 59806  44982.000000  0    1181196.653   5783929.704   3542257.786
10 0 59806  45102.000000  0    1258596.627   5239916.645   4282279.911
10 0 59806  45222.000000  0    1303671.049   4603260.953   4946932.880
10 0 59806  45342.000000  0    1314122.176   3885703.428   5524551.225
10 0 59806  45462.000000  0    1288476.050   3100423.959   6005010.836
10 0 59806  45582.000000  0    1226129.812   2261792.874   6379902.069
10 0 59806  45702.000000  0    1127378.938   1385102.090   6642671.582
10 0 59806  45822.000000  0     993424.778    486282.187   6788730.639
10 0 59806  45942.000000  0     826361.997   -418387.247   6815529.142
99
